METEOSAT-11 (MSG-4)     
1 40732U 15034A   26062.87357000  .00000050  00000+0  00000+0 0  9998
2 40732   2.9361  71.6844 0001803 270.7209 143.1153  1.00265933  6168
ELEKTRO-L 2             
1 41105U 15074A   26062.86880331 -.00000128  00000+0  00000+0 0  9991
2 41105   6.4296  71.8188 0003467 237.1165 150.9510  1.00270829 37457
INSAT-3DR               
1 41752U 16054A   26062.95772994 -.00000090  00000+0  00000+0 0  9991
2 41752   0.0460  96.8891 0013289 184.8413 298.7404  1.00272368 34767
HIMAWARI-9              
1 41836U 16064A   26062.97090335 -.00000288  00000+0  00000+0 0  9998
2 41836   0.0152 182.6425 0001151 183.5546 285.8263  1.00272405 34158
GOES 16                 
1 41866U 16071A   26062.92228311 -.00000104  00000+0  00000+0 0  9998
2 41866   0.1461  90.1616 0002547 217.4792  81.3532  1.00271688 34048
FENGYUN 4A              
1 41882U 16077A   26062.96752333 -.00000369  00000+0  00000+0 0  9995
2 41882   2.0547  81.4189 0007479 135.8532  56.3088  1.00279430 33875
CYGFM05                 
1 41884U 16078A   26062.84689905  .00031788  00000+0  51340-3 0  9994
2 41884  34.9567 235.7040 0006973 235.4679 124.5386 15.51825159512350
CYGFM04                 
1 41885U 16078B   26062.78056128  .00036077  00000+0  51484-3 0  9998
2 41885  34.9325 208.4221 0006128 268.4132  91.5890 15.55205696512549
CYGFM02                 
1 41886U 16078C   26062.81851295  .00093522  00000+0  12223-2 0  9996
2 41886  34.9409 205.1979 0007089 269.4446  90.5466 15.57345041512698
CYGFM01                 
1 41887U 16078D   26062.87573570  .00033232  00000+0  52817-3 0  9996
2 41887  34.9394 237.3329 0006623 227.7937 132.2224 15.52264938512307
CYGFM08                 
1 41888U 16078E   26062.86138855  .00034512  00000+0  51958-3 0  9996
2 41888  34.9430 219.3646 0008152 252.2571 107.7263 15.53739040512545
CYGFM07                 
1 41890U 16078G   26062.83054931  .00035434  00000+0  52035-3 0  9999
2 41890  34.9450 208.0526 0006663 272.2402  87.7559 15.54427216512569
CYGFM03                 
1 41891U 16078H   26062.73744027  .00034759  00000+0  51041-3 0  9996
2 41891  34.9404 210.6464 0005940 256.6776 103.3285 15.54436642512526
FENGYUN 3D              
1 43010U 17072A   26062.92759252 -.00000175  00000+0 -60915-4 0  9991
2 43010  99.0015  35.5088 0001841  25.2858 334.8407 14.19711893430052
NOAA 20 (JPSS-1)        
1 43013U 17073A   26062.90763584  .00000102  00000+0  69397-4 0  9997
2 43013  98.7686   3.3525 0000934 145.4890 214.6347 14.19534320429534
GOES 17                 
1 43226U 18022A   26062.92531646 -.00000195  00000+0  00000+0 0  9996
2 43226   0.6669  87.5647 0002274 220.8746  96.8465  1.00270388 29364
FENGYUN 2H              
1 43491U 18050A   26063.10132078 -.00000139  00000+0  00000+0 0  9996
2 43491   2.7598  80.3634 0001718 173.9540  23.0784  1.00272888 28385
